{"type": "FeatureCollection", "features": [ {"type": "Feature", "properties": {"norad_id": 67041, "name": "STARLINK-35765", "group": "last-30-days", "lat": 19.512113022121827, "lon": 113.40257098881877, "alt_km": 382.9318467976336, "timestamp": "2025-12-27T16:33:28.975610+00:00", "meta": {"OBJECT_NAME": "STARLINK-35765", "OBJECT_ID": "2025-294M", "EPOCH": "2025-12-27T12:00:02.000160", "MEAN_MOTION": 15.6150132, "ECCENTRICITY": 0.0001425, "INCLINATION": 42.999, "RA_OF_ASC_NODE": 92.1797, "ARG_OF_PERICENTER": 280.5071, "MEAN_ANOMALY": 120.3947, "EPHEMERIS_TYPE": 0, "CLASSIFICATION_TYPE": "U", "NORAD_CAT_ID": 67041, "ELEMENT_SET_NO": 999, "REV_AT_EPOCH": 248, "BSTAR": -0.024783, "MEAN_MOTION_DOT": -0.01925963, "MEAN_MOTION_DDOT": 0}, "tle": {"line1": "1 67041U 25294M   25361.50002315 -.01925963  00000+0 -24783-1 0  9994", "line2": "2 67041  42.9990  92.1797 0001425 280.5071 120.3947 15.61501320  2487"}}, "geometry": {"type": "Point", "coordinates": [113.40257098881877, 19.512113022121827]}}, {"type": "Feature", "properties": {"norad_id": 67042, "name": "STARLINK-35773", "group": "last-30-days", "lat": 20.773780079792218, "lon": 115.0680045786038, "alt_km": 382.717164110647, "timestamp": "2025-12-27T16:33:28.975620+00:00", "meta": {"OBJECT_NAME": "STARLINK-35773", "OBJECT_ID": "2025-294N", "EPOCH": "2025-12-27T12:00:02.000160", "MEAN_MOTION": 15.61497513, "ECCENTRICITY": 0.0001338, "INCLINATION": 42.9991, "RA_OF_ASC_NODE": 92.1739, "ARG_OF_PERICENTER": 283.9276, "MEAN_ANOMALY": 118.9918, "EPHEMERIS_TYPE": 0, "CLASSIFICATION_TYPE": "U", "NORAD_CAT_ID": 67042, "ELEMENT_SET_NO": 999, "REV_AT_EPOCH": 267, "BSTAR": -0.025011, "MEAN_MOTION_DOT": -0.01941268, "MEAN_MOTION_DDOT": 0}, "tle": {"line1": "1 67042U 25294N   25361.50002315 -.01941268  00000+0 -25011-1 0  9996", "line2": "2 67042  42.9991  92.1739 0001338 283.9276 118.9918 15.61497513  2672"}}, "geometry": {"type": "Point", "coordinates": [115.0680045786038, 20.773780079792218]}}, {"type": "Feature", "properties": {"norad_id": 67043, "name": "STARLINK-35901", "group": "last-30-days", "lat": 22.0161665831771, "lon": 116.75944834477592, "alt_km": 382.56830235469715, "timestamp": "2025-12-27T16:33:28.975629+00:00", "meta": {"OBJECT_NAME": "STARLINK-35901", "OBJECT_ID": "2025-294P", "EPOCH": "2025-12-27T12:00:02.000160", "MEAN_MOTION": 15.61482169, "ECCENTRICITY": 0.0001529, "INCLINATION": 42.9989, "RA_OF_ASC_NODE": 92.1698, "ARG_OF_PERICENTER": 286.6222, "MEAN_ANOMALY": 118.311, "EPHEMERIS_TYPE": 0, "CLASSIFICATION_TYPE": "U", "NORAD_CAT_ID": 67043, "ELEMENT_SET_NO": 999, "REV_AT_EPOCH": 267, "BSTAR": -0.024877, "MEAN_MOTION_DOT": -0.01931181, "MEAN_MOTION_DDOT": 0}, "tle": {"line1": "1 67043U 25294P   25361.50002315 -.01931181  00000+0 -24877-1 0  9999", "line2": "2 67043  42.9989  92.1698 0001529 286.6222 118.3110 15.61482169  2676"}}, "geometry": {"type": "Point", "coordinates": [116.75944834477592, 22.0161665831771]}}, {"type": "Feature", "properties": {"norad_id": 67044, "name": "STARLINK-35884", "group": "last-30-days", "lat": 23.227118841053862, "lon": 118.45997281978698, "alt_km": 382.4741987927782, "timestamp": "2025-12-27T16:33:28.975640+00:00", "meta": {"OBJECT_NAME": "STARLINK-35884", "OBJECT_ID": "2025-294Q", "EPOCH": "2025-12-27T12:00:02.000160", "MEAN_MOTION": 15.6146907, "ECCENTRICITY": 0.0001527, "INCLINATION": 42.9992, "RA_OF_ASC_NODE": 92.1651, "ARG_OF_PERICENTER": 284.7369, "MEAN_ANOMALY": 122.1883, "EPHEMERIS_TYPE": 0, "CLASSIFICATION_TYPE": "U", "NORAD_CAT_ID": 67044, "ELEMENT_SET_NO": 999, "REV_AT_EPOCH": 267, "BSTAR": -0.024753, "MEAN_MOTION_DOT": -0.01921812, "MEAN_MOTION_DDOT": 0}, "tle": {"line1": "1 67044U 25294Q   25361.50002315 -.01921812  00000+0 -24753-1 0  9993", "line2": "2 67044  42.9992  92.1651 0001527 284.7369 122.1883 15.61469070  2675"}}, "geometry": {"type": "Point", "coordinates": [118.45997281978698, 23.227118841053862]}}, {"type": "Feature", "properties": {"norad_id": 67045, "name": "STARLINK-35891", "group": "last-30-days", "lat": 24.489095352132736, "lon": 120.29451612534965, "alt_km": 382.3788262866683, "timestamp": "2025-12-27T16:33:28.975665+00:00", "meta": {"OBJECT_NAME": "STARLINK-35891", "OBJECT_ID": "2025-294R", "EPOCH": "2025-12-27T12:00:02.000160", "MEAN_MOTION": 15.61446371, "ECCENTRICITY": 0.000156, "INCLINATION": 42.9989, "RA_OF_ASC_NODE": 92.1593, "ARG_OF_PERICENTER": 284.7532, "MEAN_ANOMALY": 124.2885, "EPHEMERIS_TYPE": 0, "CLASSIFICATION_TYPE": "U", "NORAD_CAT_ID": 67045, "ELEMENT_SET_NO": 999, "REV_AT_EPOCH": 259, "BSTAR": -0.024726, "MEAN_MOTION_DOT": -0.01918529, "MEAN_MOTION_DDOT": 0}, "tle": {"line1": "1 67045U 25294R   25361.50002315 -.01918529  00000+0 -24726-1 0  9995", "line2": "2 67045  42.9989  92.1593 0001560 284.7532 124.2885 15.61446371  2591"}}, "geometry": {"type": "Point", "coordinates": [120.29451612534965, 24.489095352132736]}}, {"type": "Feature", "properties": {"norad_id": 67046, "name": "STARLINK-35721", "group": "last-30-days", "lat": 25.690168313330076, "lon": 122.10750901226973, "alt_km": 382.279518758055, "timestamp": "2025-12-27T16:33:28.975676+00:00", "meta": {"OBJECT_NAME": "STARLINK-35721", "OBJECT_ID": "2025-294S", "EPOCH": "2025-12-27T12:00:02.000160", "MEAN_MOTION": 15.61430865, "ECCENTRICITY": 0.0001612, "INCLINATION": 42.9992, "RA_OF_ASC_NODE": 92.1546, "ARG_OF_PERICENTER": 284.662, "MEAN_ANOMALY": 126.4253, "EPHEMERIS_TYPE": 0, "CLASSIFICATION_TYPE": "U", "NORAD_CAT_ID": 67046, "ELEMENT_SET_NO": 999, "REV_AT_EPOCH": 267, "BSTAR": -0.024696, "MEAN_MOTION_DOT": -0.01915498, "MEAN_MOTION_DDOT": 0}, "tle": {"line1": "1 67046U 25294S   25361.50002315 -.01915498  00000+0 -24696-1 0  9994", "line2": "2 67046  42.9992  92.1546 0001612 284.6620 126.4253 15.61430865  2672"}}, "geometry": {"type": "Point", "coordinates": [122.10750901226973, 25.690168313330076]}}, {"type": "Feature", "properties": {"norad_id": 67047, "name": "STARLINK-35779", "group": "last-30-days", "lat": 26.906970666892303, "lon": 124.01840071484845, "alt_km": 382.0956395434159, "timestamp": "2025-12-27T16:33:28.975685+00:00", "meta": {"OBJECT_NAME": "STARLINK-35779", "OBJECT_ID": "2025-294T", "EPOCH": "2025-12-27T12:00:02.000160", "MEAN_MOTION": 15.61424823, "ECCENTRICITY": 0.0001315, "INCLINATION": 42.9991, "RA_OF_ASC_NODE": 92.1484, "ARG_OF_PERICENTER": 284.507, "MEAN_ANOMALY": 128.6963, "EPHEMERIS_TYPE": 0, "CLASSIFICATION_TYPE": "U", "NORAD_CAT_ID": 67047, "ELEMENT_SET_NO": 999, "REV_AT_EPOCH": 248, "BSTAR": -0.025134, "MEAN_MOTION_DOT": -0.0194479, "MEAN_MOTION_DDOT": 0}, "tle": {"line1": "1 67047U 25294T   25361.50002315 -.01944790  00000+0 -25134-1 0  9990", "line2": "2 67047  42.9991  92.1484 0001315 284.5070 128.6963 15.61424823  2489"}}, "geometry": {"type": "Point", "coordinates": [124.01840071484845, 26.906970666892303]}}, {"type": "Feature", "properties": {"norad_id": 67048, "name": "STARLINK-35905", "group": "last-30-days", "lat": 28.003562145259803, "lon": 125.81416400549449, "alt_km": 381.9863326316181, "timestamp": "2025-12-27T16:33:28.975695+00:00", "meta": {"OBJECT_NAME": "STARLINK-35905", "OBJECT_ID": "2025-294U", "EPOCH": "2025-12-27T12:00:02.000160", "MEAN_MOTION": 15.61415998, "ECCENTRICITY": 0.0001371, "INCLINATION": 42.9994, "RA_OF_ASC_NODE": 92.1438, "ARG_OF_PERICENTER": 283.7833, "MEAN_ANOMALY": 131.3595, "EPHEMERIS_TYPE": 0, "CLASSIFICATION_TYPE": "U", "NORAD_CAT_ID": 67048, "ELEMENT_SET_NO": 999, "REV_AT_EPOCH": 259, "BSTAR": -0.02496, "MEAN_MOTION_DOT": -0.01932339, "MEAN_MOTION_DDOT": 0}, "tle": {"line1": "1 67048U 25294U   25361.50002315 -.01932339  00000+0 -24960-1 0  9993", "line2": "2 67048  42.9994  92.1438 0001371 283.7833 131.3595 15.61415998  2599"}}, "geometry": {"type": "Point", "coordinates": [125.81416400549449, 28.003562145259803]}}, {"type": "Feature", "properties": {"norad_id": 67049, "name": "STARLINK-35877", "group": "last-30-days", "lat": 29.149685354826595, "lon": 127.77590624353715, "alt_km": 381.94350754299376, "timestamp": "2025-12-27T16:33:28.975704+00:00", "meta": {"OBJECT_NAME": "STARLINK-35877", "OBJECT_ID": "2025-294V", "EPOCH": "2025-12-27T12:00:02.000160", "MEAN_MOTION": 15.61389613, "ECCENTRICITY": 0.0001561, "INCLINATION": 42.9996, "RA_OF_ASC_NODE": 92.1396, "ARG_OF_PERICENTER": 284.3645, "MEAN_ANOMALY": 132.8622, "EPHEMERIS_TYPE": 0, "CLASSIFICATION_TYPE": "U", "NORAD_CAT_ID": 67049, "ELEMENT_SET_NO": 999, "REV_AT_EPOCH": 267, "BSTAR": -0.024764, "MEAN_MOTION_DOT": -0.01917383, "MEAN_MOTION_DDOT": 0}, "tle": {"line1": "1 67049U 25294V   25361.50002315 -.01917383  00000+0 -24764-1 0  9998", "line2": "2 67049  42.9996  92.1396 0001561 284.3645 132.8622 15.61389613  2674"}}, "geometry": {"type": "Point", "coordinates": [127.77590624353715, 29.149685354826595]}}, {"type": "Feature", "properties": {"norad_id": 67050, "name": "STARLINK-36078", "group": "last-30-days", "lat": 30.271343827012682, "lon": 129.78895632333882, "alt_km": 381.73051662203943, "timestamp": "2025-12-27T16:33:28.975715+00:00", "meta": {"OBJECT_NAME": "STARLINK-36078", "OBJECT_ID": "2025-294W", "EPOCH": "2025-12-27T12:00:02.000160", "MEAN_MOTION": 15.61384304, "ECCENTRICITY": 0.0001364, "INCLINATION": 42.9995, "RA_OF_ASC_NODE": 92.1335, "ARG_OF_PERICENTER": 287.1099, "MEAN_ANOMALY": 132.2057, "EPHEMERIS_TYPE": 0, "CLASSIFICATION_TYPE": "U", "NORAD_CAT_ID": 67050, "ELEMENT_SET_NO": 999, "REV_AT_EPOCH": 259, "BSTAR": -0.025132, "MEAN_MOTION_DOT": -0.01941923, "MEAN_MOTION_DDOT": 0}, "tle": {"line1": "1 67050U 25294W   25361.50002315 -.01941923  00000+0 -25132-1 0  9997", "line2": "2 67050  42.9995  92.1335 0001364 287.1099 132.2057 15.61384304  2592"}}, "geometry": {"type": "Point", "coordinates": [129.78895632333882, 30.271343827012682]}}]}